{
  "type": "FeatureCollection",
  "features": [
    {
      "type": "Feature",
      "properties": {
        "norad_id": 37846,
        "name": "GSAT0101 (GALILEO-PFM)",
        "group": "galileo",
        "lat": -56.59572130550016,
        "lon": -113.3553864583969,
        "alt_km": 23222.320410076372,
        "timestamp": "2025-12-03T22:42:32.898676+00:00",
        "meta_object_name": "GSAT0101 (GALILEO-PFM)",
        "meta_object_id": "2011-060A",
        "meta_epoch": "2025-12-01T04:03:41.055552",
        "meta_mean_motion": 1.70475524,
        "meta_eccentricity": 0.00027506,
        "meta_inclination": 57.0554,
        "meta_ra_of_asc_node": 347.1343,
        "meta_arg_of_pericenter": 309.7017,
        "meta_mean_anomaly": 50.3167,
        "meta_ephemeris_type": 0,
        "meta_classification_type": "U",
        "meta_norad_cat_id": 37846,
        "meta_element_set_no": 999,
        "meta_rev_at_epoch": 8774,
        "meta_bstar": 0,
        "meta_mean_motion_dot": -5.9e-07,
        "meta_mean_motion_ddot": 0,
        "tle_line1": "1 37846U 11060A   25335.16922518 -.00000059  00000+0  00000+0 0  9991",
        "tle_line2": "2 37846  57.0554 347.1343 0002750 309.7017  50.3167  1.70475524 87745"
      },
      "geometry": {
        "type": "Point",
        "coordinates": [
          -113.3553864583969,
          -56.59572130550016
        ]
      }
    },
    {
      "type": "Feature",
      "properties": {
        "norad_id": 37847,
        "name": "GSAT0102 (GALILEO-FM2)",
        "group": "galileo",
        "lat": -40.16641051594384,
        "lon": -46.12693238918147,
        "alt_km": 23212.778917507323,
        "timestamp": "2025-12-03T22:42:32.898700+00:00",
        "meta_object_name": "GSAT0102 (GALILEO-FM2)",
        "meta_object_id": "2011-060B",
        "meta_epoch": "2025-12-02T06:27:38.704608",
        "meta_mean_motion": 1.70475743,
        "meta_eccentricity": 0.00047518,
        "meta_inclination": 57.0559,
        "meta_ra_of_asc_node": 347.1049,
        "meta_arg_of_pericenter": 306.1199,
        "meta_mean_anomaly": 54.4344,
        "meta_ephemeris_type": 0,
        "meta_classification_type": "U",
        "meta_norad_cat_id": 37847,
        "meta_element_set_no": 999,
        "meta_rev_at_epoch": 8777,
        "meta_bstar": 0,
        "meta_mean_motion_dot": -6.2e-07,
        "meta_mean_motion_ddot": 0,
        "tle_line1": "1 37847U 11060B   25336.26919797 -.00000062  00000+0  00000+0 0  9993",
        "tle_line2": "2 37847  57.0559 347.1049 0004751 306.1199  54.4344  1.70475743 87777"
      },
      "geometry": {
        "type": "Point",
        "coordinates": [
          -46.12693238918147,
          -40.16641051594384
        ]
      }
    },
    {
      "type": "Feature",
      "properties": {
        "norad_id": 38857,
        "name": "GSAT0103 (GALILEO-FM3)",
        "group": "galileo",
        "lat": -45.502621576820815,
        "lon": -29.10913688617009,
        "alt_km": 23221.472785210866,
        "timestamp": "2025-12-03T22:42:32.898712+00:00",
        "meta_object_name": "GSAT0103 (GALILEO-FM3)",
        "meta_object_id": "2012-055A",
        "meta_epoch": "2025-12-01T05:01:21.613152",
        "meta_mean_motion": 1.70473256,
        "meta_eccentricity": 0.00023005,
        "meta_inclination": 55.6823,
        "meta_ra_of_asc_node": 106.9832,
        "meta_arg_of_pericenter": 267.1494,
        "meta_mean_anomaly": 92.7944,
        "meta_ephemeris_type": 0,
        "meta_classification_type": "U",
        "meta_norad_cat_id": 38857,
        "meta_element_set_no": 999,
        "meta_rev_at_epoch": 8163,
        "meta_bstar": 0,
        "meta_mean_motion_dot": 4.2e-07,
        "meta_mean_motion_ddot": 0,
        "tle_line1": "1 38857U 12055A   25335.20927793  .00000042  00000+0  00000+0 0  9995",
        "tle_line2": "2 38857  55.6823 106.9832 0002300 267.1494  92.7944  1.70473256 81637"
      },
      "geometry": {
        "type": "Point",
        "coordinates": [
          -29.10913688617009,
          -45.502621576820815
        ]
      }
    },
    {
      "type": "Feature",
      "properties": {
        "norad_id": 40128,
        "name": "GSAT0201 (GALILEO 5)",
        "group": "galileo",
        "lat": 45.910887355027754,
        "lon": 38.01326438114526,
        "alt_km": 18980.773733270802,
        "timestamp": "2025-12-03T22:42:32.898724+00:00",
        "meta_object_name": "GSAT0201 (GALILEO 5)",
        "meta_object_id": "2014-050A",
        "meta_epoch": "2025-11-28T09:00:06.762528",
        "meta_mean_motion": 1.85519533,
        "meta_eccentricity": 0.16464881,
        "meta_inclination": 49.0938,
        "meta_ra_of_asc_node": 281.6492,
        "meta_arg_of_pericenter": 171.7362,
        "meta_mean_anomaly": 191.3851,
        "meta_ephemeris_type": 0,
        "meta_classification_type": "U",
        "meta_norad_cat_id": 40128,
        "meta_element_set_no": 999,
        "meta_rev_at_epoch": 7459,
        "meta_bstar": 0,
        "meta_mean_motion_dot": -4.8e-07,
        "meta_mean_motion_ddot": 0,
        "tle_line1": "1 40128U 14050A   25332.37507827 -.00000048  00000+0  00000+0 0  9990",
        "tle_line2": "2 40128  49.0938 281.6492 1646488 171.7362 191.3851  1.85519533 74599"
      },
      "geometry": {
        "type": "Point",
        "coordinates": [
          38.01326438114526,
          45.910887355027754
        ]
      }
    },
    {
      "type": "Feature",
      "properties": {
        "norad_id": 40129,
        "name": "GSAT0202 (GALILEO 6)",
        "group": "galileo",
        "lat": -27.01479245456609,
        "lon": -105.70661893301073,
        "alt_km": 25401.953637852457,
        "timestamp": "2025-12-03T22:42:32.898735+00:00",
        "meta_object_name": "GSAT0202 (GALILEO 6)",
        "meta_object_id": "2014-050B",
        "meta_epoch": "2025-12-02T22:38:17.581056",
        "meta_mean_motion": 1.8552031,
        "meta_eccentricity": 0.1647571,
        "meta_inclination": 49.1042,
        "meta_ra_of_asc_node": 280.5465,
        "meta_arg_of_pericenter": 172.6616,
        "meta_mean_anomaly": 190.1192,
        "meta_ephemeris_type": 0,
        "meta_classification_type": "U",
        "meta_norad_cat_id": 40129,
        "meta_element_set_no": 999,
        "meta_rev_at_epoch": 7684,
        "meta_bstar": 0,
        "meta_mean_motion_dot": -5.9e-07,
        "meta_mean_motion_ddot": 0,
        "tle_line1": "1 40129U 14050B   25336.94325904 -.00000059  00000+0  00000+0 0  9994",
        "tle_line2": "2 40129  49.1042 280.5465 1647571 172.6616 190.1192  1.85520310 76841"
      },
      "geometry": {
        "type": "Point",
        "coordinates": [
          -105.70661893301073,
          -27.01479245456609
        ]
      }
    },
    {
      "type": "Feature",
      "properties": {
        "norad_id": 40544,
        "name": "GSAT0203 (GALILEO 7)",
        "group": "galileo",
        "lat": 32.90381464700152,
        "lon": 11.94859214142542,
        "alt_km": 23230.936300606765,
        "timestamp": "2025-12-03T22:42:32.898746+00:00",
        "meta_object_name": "GSAT0203 (GALILEO 7)",
        "meta_object_id": "2015-017A",
        "meta_epoch": "2025-12-02T16:58:12.961344",
        "meta_mean_motion": 1.70475735,
        "meta_eccentricity": 0.0006521,
        "meta_inclination": 56.849,
        "meta_ra_of_asc_node": 346.954,
        "meta_arg_of_pericenter": 268.5764,
        "meta_mean_anomaly": 91.3871,
        "meta_ephemeris_type": 0,
        "meta_classification_type": "U",
        "meta_norad_cat_id": 40544,
        "meta_element_set_no": 999,
        "meta_rev_at_epoch": 6585,
        "meta_bstar": 0,
        "meta_mean_motion_dot": -6.5e-07,
        "meta_mean_motion_ddot": 0,
        "tle_line1": "1 40544U 15017A   25336.70709446 -.00000065  00000+0  00000+0 0  9997",
        "tle_line2": "2 40544  56.8490 346.9540 0006521 268.5764  91.3871  1.70475735 65856"
      },
      "geometry": {
        "type": "Point",
        "coordinates": [
          11.94859214142542,
          32.90381464700152
        ]
      }
    },
    {
      "type": "Feature",
      "properties": {
        "norad_id": 40545,
        "name": "GSAT0204 (GALILEO 8)",
        "group": "galileo",
        "lat": -48.59662532582825,
        "lon": -145.21527525570866,
        "alt_km": 23209.682269892102,
        "timestamp": "2025-12-03T22:42:32.898757+00:00",
        "meta_object_name": "GSAT0204 (GALILEO 8)",
        "meta_object_id": "2015-017B",
        "meta_epoch": "2025-12-01T18:56:42.196992",
        "meta_mean_motion": 1.70475405,
        "meta_eccentricity": 0.00062658,
        "meta_inclination": 56.854,
        "meta_ra_of_asc_node": 346.9967,
        "meta_arg_of_pericenter": 260.0885,
        "meta_mean_anomaly": 99.8817,
        "meta_ephemeris_type": 0,
        "meta_classification_type": "U",
        "meta_norad_cat_id": 40545,
        "meta_element_set_no": 999,
        "meta_rev_at_epoch": 2888,
        "meta_bstar": 0,
        "meta_mean_motion_dot": -6.1e-07,
        "meta_mean_motion_ddot": 0,
        "tle_line1": "1 40545U 15017B   25335.78937728 -.00000061  00000+0  00000+0 0  9997",
        "tle_line2": "2 40545  56.8540 346.9967 0006265 260.0885  99.8817  1.70475405 28881"
      },
      "geometry": {
        "type": "Point",
        "coordinates": [
          -145.21527525570866,
          -48.59662532582825
        ]
      }
    }
  ]
}